CCSDS_OMM_VERS = 2.0
CREATION_DATE  = 
ORIGINATOR     = 

OBJECT_NAME    = STARLINK-35815
OBJECT_ID      = 2025-268W
CENTER_NAME    = EARTH
REF_FRAME      = TEME
TIME_SYSTEM    = UTC
MEAN_ELEMENT_THEORY = SGP/SGP4

EPOCH          = 2025-12-30T04:00:03.000096
MEAN_MOTION    = 15.27561482
ECCENTRICITY   = .0001344
INCLINATION    = 43.0003
RA_OF_ASC_NODE = 19.7067
ARG_OF_PERICENTER = 259.8371
MEAN_ANOMALY   = 218.8438

EPHEMERIS_TYPE = 0
CLASSIFICATION_TYPE = U
NORAD_CAT_ID   = 66577
ELEMENT_SET_NO = 999
REV_AT_EPOCH   = 596
BSTAR          = .17965E-3
MEAN_MOTION_DOT = .4682E-4
MEAN_MOTION_DDOT = 0

CCSDS_OMM_VERS = 2.0
CREATION_DATE  = 
ORIGINATOR     = 

OBJECT_NAME    = STARLINK-35743
OBJECT_ID      = 2025-268X
CENTER_NAME    = EARTH
REF_FRAME      = TEME
TIME_SYSTEM    = UTC
MEAN_ELEMENT_THEORY = SGP/SGP4

EPOCH          = 2025-12-30T04:00:03.000096
MEAN_MOTION    = 15.27563799
ECCENTRICITY   = .0001029
INCLINATION    = 43.0003
RA_OF_ASC_NODE = 19.6553
ARG_OF_PERICENTER = 265.2679
MEAN_ANOMALY   = 234.6507

EPHEMERIS_TYPE = 0
CLASSIFICATION_TYPE = U
NORAD_CAT_ID   = 66578
ELEMENT_SET_NO = 999
REV_AT_EPOCH   = 596
BSTAR          = .21069E-3
MEAN_MOTION_DOT = .5537E-4
MEAN_MOTION_DDOT = 0

CCSDS_OMM_VERS = 2.0
CREATION_DATE  = 
ORIGINATOR     = 

OBJECT_NAME    = STARLINK-35868
OBJECT_ID      = 2025-268Y
CENTER_NAME    = EARTH
REF_FRAME      = TEME
TIME_SYSTEM    = UTC
MEAN_ELEMENT_THEORY = SGP/SGP4

EPOCH          = 2025-12-30T04:00:03.000096
MEAN_MOTION    = 15.27561912
ECCENTRICITY   = .0001192
INCLINATION    = 43.0004
RA_OF_ASC_NODE = 19.6042
ARG_OF_PERICENTER = 247.0303
MEAN_ANOMALY   = 274.0976

EPHEMERIS_TYPE = 0
CLASSIFICATION_TYPE = U
NORAD_CAT_ID   = 66579
ELEMENT_SET_NO = 999
REV_AT_EPOCH   = 596
BSTAR          = .25598E-3
MEAN_MOTION_DOT = .6785E-4
MEAN_MOTION_DDOT = 0

CCSDS_OMM_VERS = 2.0
CREATION_DATE  = 
ORIGINATOR     = 

OBJECT_NAME    = STARLINK-35872
OBJECT_ID      = 2025-268Z
CENTER_NAME    = EARTH
REF_FRAME      = TEME
TIME_SYSTEM    = UTC
MEAN_ELEMENT_THEORY = SGP/SGP4

EPOCH          = 2025-12-30T04:00:03.000096
MEAN_MOTION    = 15.27561276
ECCENTRICITY   = .0001109
INCLINATION    = 43.0006
RA_OF_ASC_NODE = 19.5530
ARG_OF_PERICENTER = 250.2703
MEAN_ANOMALY   = 292.0761

EPHEMERIS_TYPE = 0
CLASSIFICATION_TYPE = U
NORAD_CAT_ID   = 66580
ELEMENT_SET_NO = 999
REV_AT_EPOCH   = 590
BSTAR          = .24005E-3
MEAN_MOTION_DOT = .6346E-4
MEAN_MOTION_DDOT = 0

CCSDS_OMM_VERS = 2.0
CREATION_DATE  = 
ORIGINATOR     = 

OBJECT_NAME    = STARLINK-35744
OBJECT_ID      = 2025-268AA
CENTER_NAME    = EARTH
REF_FRAME      = TEME
TIME_SYSTEM    = UTC
MEAN_ELEMENT_THEORY = SGP/SGP4

EPOCH          = 2025-12-30T04:00:03.000096
MEAN_MOTION    = 15.27551897
ECCENTRICITY   = .0001172
INCLINATION    = 43.0010
RA_OF_ASC_NODE = 19.5001
ARG_OF_PERICENTER = 258.1964
MEAN_ANOMALY   = 305.3890

EPHEMERIS_TYPE = 0
CLASSIFICATION_TYPE = U
NORAD_CAT_ID   = 66581
ELEMENT_SET_NO = 999
REV_AT_EPOCH   = 585
BSTAR          = .43143E-3
MEAN_MOTION_DOT = .11619E-3
MEAN_MOTION_DDOT = 0

CCSDS_OMM_VERS = 2.0
CREATION_DATE  = 
ORIGINATOR     = 

OBJECT_NAME    = STARLINK-35746
OBJECT_ID      = 2025-268AB
CENTER_NAME    = EARTH
REF_FRAME      = TEME
TIME_SYSTEM    = UTC
MEAN_ELEMENT_THEORY = SGP/SGP4

EPOCH          = 2025-12-30T04:00:03.000096
MEAN_MOTION    = 15.27830997
ECCENTRICITY   = .0001152
INCLINATION    = 43.0008
RA_OF_ASC_NODE = 19.4156
ARG_OF_PERICENTER = 283.7598
MEAN_ANOMALY   = 315.0748

EPHEMERIS_TYPE = 0
CLASSIFICATION_TYPE = U
NORAD_CAT_ID   = 66582
ELEMENT_SET_NO = 999
REV_AT_EPOCH   = 596
BSTAR          = -.185E-1
MEAN_MOTION_DOT = -.481236E-2
MEAN_MOTION_DDOT = 0

CCSDS_OMM_VERS = 2.0
CREATION_DATE  = 
ORIGINATOR     = 

OBJECT_NAME    = STARLINK-35941
OBJECT_ID      = 2025-268AC
CENTER_NAME    = EARTH
REF_FRAME      = TEME
TIME_SYSTEM    = UTC
MEAN_ELEMENT_THEORY = SGP/SGP4

EPOCH          = 2025-12-30T04:00:03.000096
MEAN_MOTION    = 15.29283825
ECCENTRICITY   = .0000451
INCLINATION    = 43.0010
RA_OF_ASC_NODE = 19.3666
ARG_OF_PERICENTER = 313.8202
MEAN_ANOMALY   = 305.4102

EPHEMERIS_TYPE = 0
CLASSIFICATION_TYPE = U
NORAD_CAT_ID   = 66583
ELEMENT_SET_NO = 999
REV_AT_EPOCH   = 602
BSTAR          = -.90268E-1
MEAN_MOTION_DOT = -.2325649E-1
MEAN_MOTION_DDOT = 0

CCSDS_OMM_VERS = 2.0
CREATION_DATE  = 
ORIGINATOR     = 

OBJECT_NAME    = STARLINK-35939
OBJECT_ID      = 2025-268AD
CENTER_NAME    = EARTH
REF_FRAME      = TEME
TIME_SYSTEM    = UTC
MEAN_ELEMENT_THEORY = SGP/SGP4

EPOCH          = 2025-12-30T04:00:03.000096
MEAN_MOTION    = 15.30054505
ECCENTRICITY   = .0001824
INCLINATION    = 43.0008
RA_OF_ASC_NODE = 19.3200
ARG_OF_PERICENTER = 265.4274
MEAN_ANOMALY   = 13.3432

EPHEMERIS_TYPE = 0
CLASSIFICATION_TYPE = U
NORAD_CAT_ID   = 66584
ELEMENT_SET_NO = 999
REV_AT_EPOCH   = 596
BSTAR          = -.7213E-1
MEAN_MOTION_DOT = -.1942924E-1
MEAN_MOTION_DDOT = 0

CCSDS_OMM_VERS = 2.0
CREATION_DATE  = 
ORIGINATOR     = 

OBJECT_NAME    = STARLINK-35963
OBJECT_ID      = 2025-268AE
CENTER_NAME    = EARTH
REF_FRAME      = TEME
TIME_SYSTEM    = UTC
MEAN_ELEMENT_THEORY = SGP/SGP4

EPOCH          = 2025-12-30T04:00:03.000096
MEAN_MOTION    = 15.27561757
ECCENTRICITY   = .0000679
INCLINATION    = 43.0012
RA_OF_ASC_NODE = 20.0473
ARG_OF_PERICENTER = 277.5625
MEAN_ANOMALY   = 59.6201

EPHEMERIS_TYPE = 0
CLASSIFICATION_TYPE = U
NORAD_CAT_ID   = 66585
ELEMENT_SET_NO = 999
REV_AT_EPOCH   = 596
BSTAR          = .36434E-3
MEAN_MOTION_DOT = .9772E-4
MEAN_MOTION_DDOT = 0

CCSDS_OMM_VERS = 2.0
CREATION_DATE  = 
ORIGINATOR     = 

OBJECT_NAME    = TJS-21
OBJECT_ID      = 2025-269A
CENTER_NAME    = EARTH
REF_FRAME      = TEME
TIME_SYSTEM    = UTC
MEAN_ELEMENT_THEORY = SGP/SGP4

EPOCH          = 2025-12-22T16:41:16.797984
MEAN_MOTION    = 2.00587444
ECCENTRICITY   = .68076174
INCLINATION    = 63.2754
RA_OF_ASC_NODE = 161.3014
ARG_OF_PERICENTER = 269.7248
MEAN_ANOMALY   = 18.6681

EPHEMERIS_TYPE = 0
CLASSIFICATION_TYPE = U
NORAD_CAT_ID   = 66586
ELEMENT_SET_NO = 999
REV_AT_EPOCH   = 63
BSTAR          = -.73521313E-1
MEAN_MOTION_DOT = .1087E-4
MEAN_MOTION_DDOT = 0

CCSDS_OMM_VERS = 2.0
CREATION_DATE  = 
ORIGINATOR     = 

OBJECT_NAME    = STARLINK-36076
OBJECT_ID      = 2025-270A
CENTER_NAME    = EARTH
REF_FRAME      = TEME
TIME_SYSTEM    = UTC
MEAN_ELEMENT_THEORY = SGP/SGP4

EPOCH          = 2025-12-29T23:34:03.128160
MEAN_MOTION    = 15.40735951
ECCENTRICITY   = .0001236
INCLINATION    = 43.0018
RA_OF_ASC_NODE = 93.4362
ARG_OF_PERICENTER = 268.9585
MEAN_ANOMALY   = 91.1129

EPHEMERIS_TYPE = 0
CLASSIFICATION_TYPE = U
NORAD_CAT_ID   = 66588
ELEMENT_SET_NO = 999
REV_AT_EPOCH   = 700
BSTAR          = .19786E-2
MEAN_MOTION_DOT = .83354E-3
MEAN_MOTION_DDOT = 0

CCSDS_OMM_VERS = 2.0
CREATION_DATE  = 
ORIGINATOR     = 

OBJECT_NAME    = STARLINK-35447
OBJECT_ID      = 2025-270B
CENTER_NAME    = EARTH
REF_FRAME      = TEME
TIME_SYSTEM    = UTC
MEAN_ELEMENT_THEORY = SGP/SGP4

EPOCH          = 2025-12-29T23:08:14.947296
MEAN_MOTION    = 15.40719191
ECCENTRICITY   = .0000595
INCLINATION    = 42.9971
RA_OF_ASC_NODE = 93.2995
ARG_OF_PERICENTER = 8.7764
MEAN_ANOMALY   = 351.3102

EPHEMERIS_TYPE = 0
CLASSIFICATION_TYPE = U
NORAD_CAT_ID   = 66589
ELEMENT_SET_NO = 999
REV_AT_EPOCH   = 711
BSTAR          = .17251E-2
MEAN_MOTION_DOT = .7249E-3
MEAN_MOTION_DDOT = 0

