STARLINK-35815          
1 66577U 25268W   25364.16670139  .00004682  00000+0  17965-3 0  9997
2 66577  43.0003  19.7067 0001344 259.8371 218.8438 15.27561482  5965
STARLINK-35743          
1 66578U 25268X   25364.16670139  .00005537  00000+0  21069-3 0  9998
2 66578  43.0003  19.6553 0001029 265.2679 234.6507 15.27563799  5963
STARLINK-35868          
1 66579U 25268Y   25364.16670139  .00006785  00000+0  25598-3 0  9996
2 66579  43.0004  19.6042 0001192 247.0303 274.0976 15.27561912  5964
STARLINK-35872          
1 66580U 25268Z   25364.16670139  .00006346  00000+0  24005-3 0  9993
2 66580  43.0006  19.5530 0001109 250.2703 292.0761 15.27561276  5906
STARLINK-35744          
1 66581U 25268AA  25364.16670139  .00011619  00000+0  43143-3 0  9997
2 66581  43.0010  19.5001 0001172 258.1964 305.3890 15.27551897  5854
STARLINK-35746          
1 66582U 25268AB  25364.16670139 -.00481236  00000+0 -18500-1 0  9993
2 66582  43.0008  19.4156 0001152 283.7598 315.0748 15.27830997  5960
STARLINK-35941          
1 66583U 25268AC  25364.16670139 -.02325649  00000+0 -90268-1 0  9992
2 66583  43.0010  19.3666 0000451 313.8202 305.4102 15.29283825  6026
STARLINK-35939          
1 66584U 25268AD  25364.16670139 -.01942924  00000+0 -72130-1 0  9991
2 66584  43.0008  19.3200 0001824 265.4274  13.3432 15.30054505  5960
STARLINK-35963          
1 66585U 25268AE  25364.16670139  .00009772  00000+0  36434-3 0  9993
2 66585  43.0012  20.0473 0000679 277.5625  59.6201 15.27561757  5963
TJS-21                  
1 66586U 25269A   25356.69533331  .00001087  00000+0 -73521-1 0  9994
2 66586  63.2754 161.3014 6807617 269.7248  18.6681  2.00587444   632
STARLINK-36076          
1 66588U 25270A   25363.98198065  .00083354  00000+0  19786-2 0  9999
2 66588  43.0018  93.4362 0001236 268.9585  91.1129 15.40735951  7003
STARLINK-35447          
1 66589U 25270B   25363.96406189  .00072490  00000+0  17251-2 0  9991
2 66589  42.9971  93.2995 0000595   8.7764 351.3102 15.40719191  7118
